{
  "type": "FeatureCollection",
  "features": [
    {
      "type": "Feature",
      "properties": {
        "norad_id": 38498,
        "name": "FENGYUN 1C DEB",
        "group": "fengyun-1c-debris",
        "lat": 59.26854684875516,
        "lon": -1.8069376525047631,
        "alt_km": 848.3841366201523,
        "timestamp": "2025-12-21T14:40:48.206641+00:00",
        "meta_object_name": "FENGYUN 1C DEB",
        "meta_object_id": "1999-025ESH",
        "meta_epoch": "2025-12-16T19:35:11.968800",
        "meta_mean_motion": 12.96623618,
        "meta_eccentricity": 0.05558926,
        "meta_inclination": 99.6982,
        "meta_ra_of_asc_node": 10.6357,
        "meta_arg_of_pericenter": 62.8897,
        "meta_mean_anomaly": 302.779,
        "meta_ephemeris_type": 0,
        "meta_classification_type": "U",
        "meta_norad_cat_id": 38498,
        "meta_element_set_no": 999,
        "meta_rev_at_epoch": 53796,
        "meta_bstar": 0.0025835338,
        "meta_mean_motion_dot": 1.475e-05,
        "meta_mean_motion_ddot": 0,
        "tle_line1": "1 38498U 99025ESH 25350.81611075  .00001475  00000+0  25835-2 0  9992",
        "tle_line2": "2 38498  99.6982  10.6357 0555892  62.8897 302.7790 12.96623618537965"
      },
      "geometry": {
        "type": "Point",
        "coordinates": [
          -1.8069376525047631,
          59.26854684875516
        ]
      }
    },
    {
      "type": "Feature",
      "properties": {
        "norad_id": 38510,
        "name": "FENGYUN 1C DEB",
        "group": "fengyun-1c-debris",
        "lat": -30.533823456166214,
        "lon": 9.471874732570715,
        "alt_km": 918.737400237279,
        "timestamp": "2025-12-21T14:40:48.206652+00:00",
        "meta_object_name": "FENGYUN 1C DEB",
        "meta_object_id": "1999-025ESV",
        "meta_epoch": "2025-12-16T07:23:50.761824",
        "meta_mean_motion": 14.13330157,
        "meta_eccentricity": 0.00990126,
        "meta_inclination": 98.6018,
        "meta_ra_of_asc_node": 359.2503,
        "meta_arg_of_pericenter": 139.579,
        "meta_mean_anomaly": 221.2794,
        "meta_ephemeris_type": 0,
        "meta_classification_type": "U",
        "meta_norad_cat_id": 38510,
        "meta_element_set_no": 999,
        "meta_rev_at_epoch": 88720,
        "meta_bstar": 0.00055421528,
        "meta_mean_motion_dot": 1.048e-05,
        "meta_mean_motion_ddot": 0,
        "tle_line1": "1 38510U 99025ESV 25350.30822641  .00001048  00000+0  55422-3 0  9996",
        "tle_line2": "2 38510  98.6018 359.2503 0099012 139.5790 221.2794 14.13330157887203"
      },
      "geometry": {
        "type": "Point",
        "coordinates": [
          9.471874732570715,
          -30.533823456166214
        ]
      }
    },
    {
      "type": "Feature",
      "properties": {
        "norad_id": 38512,
        "name": "FENGYUN 1C DEB",
        "group": "fengyun-1c-debris",
        "lat": -18.385641873930677,
        "lon": 53.54328054167351,
        "alt_km": 1063.3122697299314,
        "timestamp": "2025-12-21T14:40:48.206662+00:00",
        "meta_object_name": "FENGYUN 1C DEB",
        "meta_object_id": "1999-025ESX",
        "meta_epoch": "2025-12-10T03:21:08.986176",
        "meta_mean_motion": 13.7397021,
        "meta_eccentricity": 0.02264501,
        "meta_inclination": 98.3804,
        "meta_ra_of_asc_node": 226.2794,
        "meta_arg_of_pericenter": 112.1956,
        "meta_mean_anomaly": 250.339,
        "meta_ephemeris_type": 0,
        "meta_classification_type": "U",
        "meta_norad_cat_id": 38512,
        "meta_element_set_no": 999,
        "meta_rev_at_epoch": 59534,
        "meta_bstar": 0.0014232555,
        "meta_mean_motion_dot": 1.573e-05,
        "meta_mean_motion_ddot": 0,
        "tle_line1": "1 38512U 99025ESX 25344.13968734  .00001573  00000+0  14233-2 0  9993",
        "tle_line2": "2 38512  98.3804 226.2794 0226450 112.1956 250.3390 13.73970210595340"
      },
      "geometry": {
        "type": "Point",
        "coordinates": [
          53.54328054167351,
          -18.385641873930677
        ]
      }
    },
    {
      "type": "Feature",
      "properties": {
        "norad_id": 38514,
        "name": "FENGYUN 1C DEB",
        "group": "fengyun-1c-debris",
        "lat": 3.9219652860130827,
        "lon": -155.08650058223665,
        "alt_km": 1033.9136277627904,
        "timestamp": "2025-12-21T14:40:48.206672+00:00",
        "meta_object_name": "FENGYUN 1C DEB",
        "meta_object_id": "1999-025ESZ",
        "meta_epoch": "2025-12-20T07:19:21.000288",
        "meta_mean_motion": 14.16016935,
        "meta_eccentricity": 0.02699061,
        "meta_inclination": 98.0552,
        "meta_ra_of_asc_node": 23.1735,
        "meta_arg_of_pericenter": 351.7155,
        "meta_mean_anomaly": 7.9609,
        "meta_ephemeris_type": 0,
        "meta_classification_type": "U",
        "meta_norad_cat_id": 38514,
        "meta_element_set_no": 999,
        "meta_rev_at_epoch": 88103,
        "meta_bstar": 0.0044467844,
        "meta_mean_motion_dot": 0.00012488,
        "meta_mean_motion_ddot": 0,
        "tle_line1": "1 38514U 99025ESZ 25354.30510417  .00012488  00000+0  44468-2 0  9996",
        "tle_line2": "2 38514  98.0552  23.1735 0269906 351.7155   7.9609 14.16016935881039"
      },
      "geometry": {
        "type": "Point",
        "coordinates": [
          -155.08650058223665,
          3.9219652860130827
        ]
      }
    },
    {
      "type": "Feature",
      "properties": {
        "norad_id": 38516,
        "name": "FENGYUN 1C DEB",
        "group": "fengyun-1c-debris",
        "lat": 6.470650598646329,
        "lon": -21.648727299560903,
        "alt_km": 782.5230373773829,
        "timestamp": "2025-12-21T14:40:48.206682+00:00",
        "meta_object_name": "FENGYUN 1C DEB",
        "meta_object_id": "1999-025ETB",
        "meta_epoch": "2025-12-11T05:08:28.629600",
        "meta_mean_motion": 14.34046614,
        "meta_eccentricity": 0.01114605,
        "meta_inclination": 98.4424,
        "meta_ra_of_asc_node": 329.1639,
        "meta_arg_of_pericenter": 129.7908,
        "meta_mean_anomaly": 231.3156,
        "meta_ephemeris_type": 0,
        "meta_classification_type": "U",
        "meta_norad_cat_id": 38516,
        "meta_element_set_no": 999,
        "meta_rev_at_epoch": 84851,
        "meta_bstar": 0.00015782354,
        "meta_mean_motion_dot": 4.29e-06,
        "meta_mean_motion_ddot": 0,
        "tle_line1": "1 38516U 99025ETB 25345.21422025  .00000429  00000+0  15782-3 0  9995",
        "tle_line2": "2 38516  98.4424 329.1639 0111460 129.7908 231.3156 14.34046614848518"
      },
      "geometry": {
        "type": "Point",
        "coordinates": [
          -21.648727299560903,
          6.470650598646329
        ]
      }
    },
    {
      "type": "Feature",
      "properties": {
        "norad_id": 38717,
        "name": "FENGYUN 1C DEB",
        "group": "fengyun-1c-debris",
        "lat": 41.6231483646691,
        "lon": -160.62708369718186,
        "alt_km": 862.0013224916147,
        "timestamp": "2025-12-21T14:40:48.206693+00:00",
        "meta_object_name": "FENGYUN 1C DEB",
        "meta_object_id": "1999-025ETJ",
        "meta_epoch": "2025-12-20T20:16:03.375264",
        "meta_mean_motion": 14.19985703,
        "meta_eccentricity": 0.00566207,
        "meta_inclination": 99.1583,
        "meta_ra_of_asc_node": 10.338,
        "meta_arg_of_pericenter": 330.8628,
        "meta_mean_anomaly": 207.0088,
        "meta_ephemeris_type": 0,
        "meta_classification_type": "U",
        "meta_norad_cat_id": 38717,
        "meta_element_set_no": 999,
        "meta_rev_at_epoch": 58541,
        "meta_bstar": 0.001109032,
        "meta_mean_motion_dot": 2.349e-05,
        "meta_mean_motion_ddot": 0,
        "tle_line1": "1 38717U 99025ETJ 25354.84448351  .00002349  00000+0  11090-2 0  9997",
        "tle_line2": "2 38717  99.1583  10.3380 0056620 330.8628 207.0088 14.19985703585412"
      },
      "geometry": {
        "type": "Point",
        "coordinates": [
          -160.62708369718186,
          41.6231483646691
        ]
      }
    },
    {
      "type": "Feature",
      "properties": {
        "norad_id": 38722,
        "name": "FENGYUN 1C DEB",
        "group": "fengyun-1c-debris",
        "lat": -41.6596167473039,
        "lon": 103.4696404455076,
        "alt_km": 739.0268835936013,
        "timestamp": "2025-12-21T14:40:48.206703+00:00",
        "meta_object_name": "FENGYUN 1C DEB",
        "meta_object_id": "1999-025ETP",
        "meta_epoch": "2025-12-17T02:12:43.977024",
        "meta_mean_motion": 14.58521186,
        "meta_eccentricity": 0.0146561,
        "meta_inclination": 99.3535,
        "meta_ra_of_asc_node": 89.9539,
        "meta_arg_of_pericenter": 81.7471,
        "meta_mean_anomaly": 280.0316,
        "meta_ephemeris_type": 0,
        "meta_classification_type": "U",
        "meta_norad_cat_id": 38722,
        "meta_element_set_no": 999,
        "meta_rev_at_epoch": 70527,
        "meta_bstar": 0.0018586815,
        "meta_mean_motion_dot": 9.973e-05,
        "meta_mean_motion_ddot": 0,
        "tle_line1": "1 38722U 99025ETP 25351.09217566  .00009973  00000+0  18587-2 0  9997",
        "tle_line2": "2 38722  99.3535  89.9539 0146561  81.7471 280.0316 14.58521186705274"
      },
      "geometry": {
        "type": "Point",
        "coordinates": [
          103.4696404455076,
          -41.6596167473039
        ]
      }
    }
  ]
}